{
  "type": "FeatureCollection",
  "features": [
    {
      "type": "Feature",
      "properties": {
        "norad_id": 32376,
        "name": "COSMO-SKYMED 2",
        "group": "resource",
        "lat": 81.88603747045863,
        "lon": 106.36973439473489,
        "alt_km": 614.1534885451401,
        "timestamp": "2025-12-27T13:34:48.946326+00:00",
        "meta_object_name": "COSMO-SKYMED 2",
        "meta_object_id": "2007-059A",
        "meta_epoch": "2025-12-27T06:42:12.396096",
        "meta_mean_motion": 14.82161054,
        "meta_eccentricity": 0.0001287,
        "meta_inclination": 97.8807,
        "meta_ra_of_asc_node": 182.3843,
        "meta_arg_of_pericenter": 83.0468,
        "meta_mean_anomaly": 277.0892,
        "meta_ephemeris_type": 0,
        "meta_classification_type": "U",
        "meta_norad_cat_id": 32376,
        "meta_element_set_no": 999,
        "meta_rev_at_epoch": 97653,
        "meta_bstar": 9.2941681e-05,
        "meta_mean_motion_dot": 6.88e-06,
        "meta_mean_motion_ddot": 0,
        "tle_line1": "1 32376U 07059A   25361.27931014  .00000688  00000+0  92942-4 0  9997",
        "tle_line2": "2 32376  97.8807 182.3843 0001287  83.0468 277.0892 14.82161054976535"
      },
      "geometry": {
        "type": "Point",
        "coordinates": [
          106.36973439473489,
          81.88603747045863
        ]
      }
    },
    {
      "type": "Feature",
      "properties": {
        "norad_id": 32382,
        "name": "RADARSAT-2",
        "group": "resource",
        "lat": 42.14666044737805,
        "lon": -166.2058041404147,
        "alt_km": 787.8133645695443,
        "timestamp": "2025-12-27T13:34:48.946337+00:00",
        "meta_object_name": "RADARSAT-2",
        "meta_object_id": "2007-061A",
        "meta_epoch": "2025-12-27T07:54:11.234880",
        "meta_mean_motion": 14.29986441,
        "meta_eccentricity": 0.00011454,
        "meta_inclination": 98.5802,
        "meta_ra_of_asc_node": 5.7074,
        "meta_arg_of_pericenter": 84.8483,
        "meta_mean_anomaly": 275.283,
        "meta_ephemeris_type": 0,
        "meta_classification_type": "U",
        "meta_norad_cat_id": 32382,
        "meta_element_set_no": 999,
        "meta_rev_at_epoch": 94139,
        "meta_bstar": 0.00013971797,
        "meta_mean_motion_dot": 3.17e-06,
        "meta_mean_motion_ddot": 0,
        "tle_line1": "1 32382U 07061A   25361.32929670  .00000317  00000+0  13972-3 0  9992",
        "tle_line2": "2 32382  98.5802   5.7074 0001145  84.8483 275.2830 14.29986441941392"
      },
      "geometry": {
        "type": "Point",
        "coordinates": [
          -166.2058041404147,
          42.14666044737805
        ]
      }
    },
    {
      "type": "Feature",
      "properties": {
        "norad_id": 32783,
        "name": "CARTOSAT-2A",
        "group": "resource",
        "lat": 56.02602653827473,
        "lon": 39.200885875070426,
        "alt_km": 628.8456337551643,
        "timestamp": "2025-12-27T13:34:48.946347+00:00",
        "meta_object_name": "CARTOSAT-2A",
        "meta_object_id": "2008-021A",
        "meta_epoch": "2025-12-27T06:49:45.616800",
        "meta_mean_motion": 14.78951694,
        "meta_eccentricity": 0.00111026,
        "meta_inclination": 97.7907,
        "meta_ra_of_asc_node": 50.6512,
        "meta_arg_of_pericenter": 316.2617,
        "meta_mean_anomaly": 43.7715,
        "meta_ephemeris_type": 0,
        "meta_classification_type": "U",
        "meta_norad_cat_id": 32783,
        "meta_element_set_no": 999,
        "meta_rev_at_epoch": 95339,
        "meta_bstar": 7.407155e-05,
        "meta_mean_motion_dot": 4.97e-06,
        "meta_mean_motion_ddot": 0,
        "tle_line1": "1 32783U 08021A   25361.28455575  .00000497  00000+0  74072-4 0  9995",
        "tle_line2": "2 32783  97.7907  50.6512 0011102 316.2617  43.7715 14.78951694953394"
      },
      "geometry": {
        "type": "Point",
        "coordinates": [
          39.200885875070426,
          56.02602653827473
        ]
      }
    },
    {
      "type": "Feature",
      "properties": {
        "norad_id": 33320,
        "name": "HUANJING 1A (HJ-1A)",
        "group": "resource",
        "lat": 19.482691835600484,
        "lon": 171.97363198652988,
        "alt_km": 631.8622278745925,
        "timestamp": "2025-12-27T13:34:48.946357+00:00",
        "meta_object_name": "HUANJING 1A (HJ-1A)",
        "meta_object_id": "2008-041A",
        "meta_epoch": "2025-12-27T06:23:05.294400",
        "meta_mean_motion": 14.83441834,
        "meta_eccentricity": 0.00189892,
        "meta_inclination": 97.6555,
        "meta_ra_of_asc_node": 348.9588,
        "meta_arg_of_pericenter": 347.9237,
        "meta_mean_anomaly": 12.152,
        "meta_ephemeris_type": 0,
        "meta_classification_type": "U",
        "meta_norad_cat_id": 33320,
        "meta_element_set_no": 999,
        "meta_rev_at_epoch": 93291,
        "meta_bstar": 0.00030022759,
        "meta_mean_motion_dot": 2.422e-05,
        "meta_mean_motion_ddot": 0,
        "tle_line1": "1 33320U 08041A   25361.26603350  .00002422  00000+0  30023-3 0  9996",
        "tle_line2": "2 33320  97.6555 348.9588 0018989 347.9237  12.1520 14.83441834932910"
      },
      "geometry": {
        "type": "Point",
        "coordinates": [
          171.97363198652988,
          19.482691835600484
        ]
      }
    },
    {
      "type": "Feature",
      "properties": {
        "norad_id": 33321,
        "name": "HUANJING 1B (HJ-1B)",
        "group": "resource",
        "lat": -9.753498590769869,
        "lon": -5.773491524732789,
        "alt_km": 603.8274646197124,
        "timestamp": "2025-12-27T13:34:48.946368+00:00",
        "meta_object_name": "HUANJING 1B (HJ-1B)",
        "meta_object_id": "2008-041B",
        "meta_epoch": "2025-12-27T07:08:46.819104",
        "meta_mean_motion": 14.82862111,
        "meta_eccentricity": 0.00376408,
        "meta_inclination": 97.6413,
        "meta_ra_of_asc_node": 352.6479,
        "meta_arg_of_pericenter": 29.5678,
        "meta_mean_anomaly": 330.7654,
        "meta_ephemeris_type": 0,
        "meta_classification_type": "U",
        "meta_norad_cat_id": 33321,
        "meta_element_set_no": 999,
        "meta_rev_at_epoch": 93293,
        "meta_bstar": 0.00023336793,
        "meta_mean_motion_dot": 1.862e-05,
        "meta_mean_motion_ddot": 0,
        "tle_line1": "1 33321U 08041B   25361.29776411  .00001862  00000+0  23337-3 0  9996",
        "tle_line2": "2 33321  97.6413 352.6479 0037640  29.5678 330.7654 14.82862111932935"
      },
      "geometry": {
        "type": "Point",
        "coordinates": [
          -5.773491524732789,
          -9.753498590769869
        ]
      }
    },
    {
      "type": "Feature",
      "properties": {
        "norad_id": 33331,
        "name": "GEOEYE 1",
        "group": "resource",
        "lat": 81.65320416827304,
        "lon": -30.554645832082656,
        "alt_km": 671.911745632141,
        "timestamp": "2025-12-27T13:34:48.946386+00:00",
        "meta_object_name": "GEOEYE 1",
        "meta_object_id": "2008-042A",
        "meta_epoch": "2025-12-27T06:36:14.348448",
        "meta_mean_motion": 14.6471997,
        "meta_eccentricity": 0.00031057,
        "meta_inclination": 98.1235,
        "meta_ra_of_asc_node": 72.3715,
        "meta_arg_of_pericenter": 222.44,
        "meta_mean_anomaly": 137.6563,
        "meta_ephemeris_type": 0,
        "meta_classification_type": "U",
        "meta_norad_cat_id": 33331,
        "meta_element_set_no": 999,
        "meta_rev_at_epoch": 92498,
        "meta_bstar": 0.00013597737,
        "meta_mean_motion_dot": 6.76e-06,
        "meta_mean_motion_ddot": 0,
        "tle_line1": "1 33331U 08042A   25361.27516607  .00000676  00000+0  13598-3 0  9995",
        "tle_line2": "2 33331  98.1235  72.3715 0003105 222.4400 137.6563 14.64719970924982"
      },
      "geometry": {
        "type": "Point",
        "coordinates": [
          -30.554645832082656,
          81.65320416827304
        ]
      }
    },
    {
      "type": "Feature",
      "properties": {
        "norad_id": 33396,
        "name": "THEOS",
        "group": "resource",
        "lat": 81.39708921095067,
        "lon": -33.984713586922844,
        "alt_km": 816.6737779680161,
        "timestamp": "2025-12-27T13:34:48.946406+00:00",
        "meta_object_name": "THEOS",
        "meta_object_id": "2008-049A",
        "meta_epoch": "2025-12-27T08:04:58.643040",
        "meta_mean_motion": 14.20099739,
        "meta_eccentricity": 0.00012202,
        "meta_inclination": 98.5843,
        "meta_ra_of_asc_node": 58.9942,
        "meta_arg_of_pericenter": 92.0635,
        "meta_mean_anomaly": 268.0682,
        "meta_ephemeris_type": 0,
        "meta_classification_type": "U",
        "meta_norad_cat_id": 33396,
        "meta_element_set_no": 999,
        "meta_rev_at_epoch": 89357,
        "meta_bstar": 4.512989e-05,
        "meta_mean_motion_dot": 5.4e-07,
        "meta_mean_motion_ddot": 0,
        "tle_line1": "1 33396U 08049A   25361.33678985  .00000054  00000+0  45130-4 0  9996",
        "tle_line2": "2 33396  98.5843  58.9942 0001220  92.0635 268.0682 14.20099739893578"
      },
      "geometry": {
        "type": "Point",
        "coordinates": [
          -33.984713586922844,
          81.39708921095067
        ]
      }
    }
  ]
}